{
  "constellation": "oneweb",
  "timestamp": "2025-07-21T05:06:13.717346+00:00",
  "satellite_count": 651,
  "data": [
    {
      "satellite_name": "ONEWEB-0192",
      "catalog_number": 48222,
      "epoch_year": 2025,
      "epoch_day": 201.44658052,
      "first_derivative": -6.6e-07,
      "second_derivative": 0.0,
      "drag_term": -0.00021365000000000002,
      "inclination": 87.906,
      "right_ascension": 355.7314,
      "eccentricity": 0.0001826,
      "argument_of_perigee": 91.6852,
      "mean_anomaly": 268.4487,
      "mean_motion": 13.14503019,
      "revolution_number": 20459,
      "line1": "1 48222U 21031N   25201.44658052 -.00000066  00000+0 -21365-3 0  9992",
      "line2": "2 48222  87.9060 355.7314 0001826  91.6852 268.4487 13.14503019204592",
      "last_updated": "2025-07-21T05:06:13.714105+00:00",
      "constellation": "oneweb"
    },
    {
      "satellite_name": "ONEWEB-0219",
      "catalog_number": 48223,
      "epoch_year": 2025,
      "epoch_day": 201.50209005,
      "first_derivative": 2.15e-06,
      "second_derivative": 0.0,
      "drag_term": 0.0,
      "inclination": 87.9056,
      "right_ascension": 355.6927,
      "eccentricity": 0.000169,
      "argument_of_perigee": 92.0677,
      "mean_anomaly": 268.0646,
      "mean_motion": 13.14503135,
      "revolution_number": 20480,
      "line1": "1 48223U 21031P   25201.50209005  .00000215  00000+0  54500-3 0  9991",
      "line2": "2 48223  87.9056 355.6927 0001690  92.0677 268.0646 13.14503135204802",
      "last_updated": "2025-07-21T05:06:13.714107+00:00",
      "constellation": "oneweb"
    },
    {
      "satellite_name": "ONEWEB-0202",
      "catalog_number": 48224,
      "epoch_year": 2025,
      "epoch_day": 201.86364641,
      "first_derivative": 7.5e-07,
      "second_derivative": 0.0,
      "drag_term": 0.0,
      "inclination": 87.9053,
      "right_ascension": 355.6351,
      "eccentricity": 0.0002041,
      "argument_of_perigee": 72.4935,
      "mean_anomaly": 287.6418,
      "mean_motion": 13.14503262,
      "revolution_number": 20484,
      "line1": "1 48224U 21031Q   25201.86364641  .00000075  00000+0  16915-3 0  9991",
      "line2": "2 48224  87.9053 355.6351 0002041  72.4935 287.6418 13.14503262204840",
      "last_updated": "2025-07-21T05:06:13.714109+00:00",
      "constellation": "oneweb"
    },
    {
      "satellite_name": "ONEWEB-0204",
      "catalog_number": 48225,
      "epoch_year": 2025,
      "epoch_day": 201.44102622,
      "first_derivative": 3.8e-07,
      "second_derivative": 0.0,
      "drag_term": 0.0,
      "inclination": 87.9041,
      "right_ascension": 355.7163,
      "eccentricity": 0.0001707,
      "argument_of_perigee": 103.8556,
      "mean_anomaly": 256.2764,
      "mean_motion": 13.14503312,
      "revolution_number": 20467,
      "line1": "1 48225U 21031R   25201.44102622  .00000038  00000+0  68680-4 0  9991",
      "line2": "2 48225  87.9041 355.7163 0001707 103.8556 256.2764 13.14503312204679",
      "last_updated": "2025-07-21T05:06:13.714111+00:00",
      "constellation": "oneweb"
    },
    {
      "satellite_name": "ONEWEB-0205",
      "catalog_number": 48226,
      "epoch_year": 2025,
      "epoch_day": 201.8731477,
      "first_derivative": 7.91e-06,
      "second_derivative": 0.0,
      "drag_term": 0.0,
      "inclination": 87.9059,
      "right_ascension": 355.6173,
      "eccentricity": 0.0001632,
      "argument_of_perigee": 91.2557,
      "mean_anomaly": 268.8759,
      "mean_motion": 13.14510534,
      "revolution_number": 20475,
      "line1": "1 48226U 21031S   25201.87314770  .00000791  00000+0  20983-2 0  9996",
      "line2": "2 48226  87.9059 355.6173 0001632  91.2557 268.8759 13.14510534204753",
      "last_updated": "2025-07-21T05:06:13.714113+00:00",
      "constellation": "oneweb"
    },
    {
      "satellite_name": "ONEWEB-0206",
      "catalog_number": 48227,
      "epoch_year": 2025,
      "epoch_day": 201.84619808,
      "first_derivative": -1.96e-06,
      "second_derivative": 0.0,
      "drag_term": -0.0005623000000000001,
      "inclination": 87.9052,
      "right_ascension": 355.6019,
      "eccentricity": 0.0001726,
      "argument_of_perigee": 95.2685,
      "mean_anomaly": 264.8641,
      "mean_motion": 13.14503818,
      "revolution_number": 20470,
      "line1": "1 48227U 21031T   25201.84619808 -.00000196  00000+0 -56230-3 0  9990",
      "line2": "2 48227  87.9052 355.6019 0001726  95.2685 264.8641 13.14503818204704",
      "last_updated": "2025-07-21T05:06:13.714115+00:00",
      "constellation": "oneweb"
    },
    {
      "satellite_name": "ONEWEB-0182",
      "catalog_number": 48228,
      "epoch_year": 2025,
      "epoch_day": 201.84145007,
      "first_derivative": -3.15e-06,
      "second_derivative": 0.0,
      "drag_term": -0.0008845,
      "inclination": 87.9056,
      "right_ascension": 355.6472,
      "eccentricity": 0.0001667,
      "argument_of_perigee": 101.5021,
      "mean_anomaly": 258.6296,
      "mean_motion": 13.14503779,
      "revolution_number": 20491,
      "line1": "1 48228U 21031U   25201.84145007 -.00000315  00000+0 -88450-3 0  9998",
      "line2": "2 48228  87.9056 355.6472 0001667 101.5021 258.6296 13.14503779204917",
      "last_updated": "2025-07-21T05:06:13.714117+00:00",
      "constellation": "oneweb"
    },
    {
      "satellite_name": "ONEWEB-0186",
      "catalog_number": 48229,
      "epoch_year": 2025,
      "epoch_day": 201.47194283,
      "first_derivative": -1.325e-05,
      "second_derivative": 0.0,
      "drag_term": -0.0036092000000000003,
      "inclination": 87.9059,
      "right_ascension": 355.6816,
      "eccentricity": 0.000173,
      "argument_of_perigee": 91.6458,
      "mean_anomaly": 268.487,
      "mean_motion": 13.14509239,
      "revolution_number": 20480,
      "line1": "1 48229U 21031V   25201.47194283 -.00001325  00000+0 -36092-2 0  9994",
      "line2": "2 48229  87.9059 355.6816 0001730  91.6458 268.4870 13.14509239204809",
      "last_updated": "2025-07-21T05:06:13.714119+00:00",
      "constellation": "oneweb"
    },
    {
      "satellite_name": "ONEWEB-0181",
      "catalog_number": 48230,
      "epoch_year": 2025,
      "epoch_day": 201.83033886,
      "first_derivative": -1.48e-06,
      "second_derivative": 0.0,
      "drag_term": -0.00043269,
      "inclination": 87.9059,
      "right_ascension": 355.6826,
      "eccentricity": 0.0001815,
      "argument_of_perigee": 89.9731,
      "mean_anomaly": 270.1607,
      "mean_motion": 13.14503588,
      "revolution_number": 20471,
      "line1": "1 48230U 21031W   25201.83033886 -.00000148  00000+0 -43269-3 0  9994",
      "line2": "2 48230  87.9059 355.6826 0001815  89.9731 270.1607 13.14503588204719",
      "last_updated": "2025-07-21T05:06:13.714121+00:00",
      "constellation": "oneweb"
    },
    {
      "satellite_name": "ONEWEB-0188",
      "catalog_number": 48231,
      "epoch_year": 2025,
      "epoch_day": 201.41169864,
      "first_derivative": 2.46e-06,
      "second_derivative": 0.0,
      "drag_term": 0.0,
      "inclination": 87.9052,
      "right_ascension": 355.7565,
      "eccentricity": 0.0001793,
      "argument_of_perigee": 94.7254,
      "mean_anomaly": 265.408,
      "mean_motion": 13.14503846,
      "revolution_number": 20455,
      "line1": "1 48231U 21031X   25201.41169864  .00000246  00000+0  62924-3 0  9991",
      "line2": "2 48231  87.9052 355.7565 0001793  94.7254 265.4080 13.14503846204554",
      "last_updated": "2025-07-21T05:06:13.714124+00:00",
      "constellation": "oneweb"
    },
    {
      "satellite_name": "ONEWEB-0220",
      "catalog_number": 48232,
      "epoch_year": 2025,
      "epoch_day": 201.83192659,
      "first_derivative": -1.47e-06,
      "second_derivative": 0.0,
      "drag_term": -0.00043213,
      "inclination": 87.9052,
      "right_ascension": 355.6143,
      "eccentricity": 0.0001567,
      "argument_of_perigee": 93.2723,
      "mean_anomaly": 266.8586,
      "mean_motion": 13.1450196,
      "revolution_number": 20487,
      "line1": "1 48232U 21031Y   25201.83192659 -.00000147  00000+0 -43213-3 0  9998",
      "line2": "2 48232  87.9052 355.6143 0001567  93.2723 266.8586 13.14501960204876",
      "last_updated": "2025-07-21T05:06:13.714126+00:00",
      "constellation": "oneweb"
    },
    {
      "satellite_name": "ONEWEB-0165",
      "catalog_number": 48233,
      "epoch_year": 2025,
      "epoch_day": 201.86045886,
      "first_derivative": -2.1e-06,
      "second_derivative": 0.0,
      "drag_term": -0.00060169,
      "inclination": 87.9054,
      "right_ascension": 355.6514,
      "eccentricity": 0.0001605,
      "argument_of_perigee": 90.6549,
      "mean_anomaly": 269.4765,
      "mean_motion": 13.14503226,
      "revolution_number": 20483,
      "line1": "1 48233U 21031Z   25201.86045886 -.00000210  00000+0 -60169-3 0  9991",
      "line2": "2 48233  87.9054 355.6514 0001605  90.6549 269.4765 13.14503226204832",
      "last_updated": "2025-07-21T05:06:13.714128+00:00",
      "constellation": "oneweb"
    },
    {
      "satellite_name": "ONEWEB-0199",
      "catalog_number": 48234,
      "epoch_year": 2025,
      "epoch_day": 201.46402692,
      "first_derivative": -1.63e-06,
      "second_derivative": 0.0,
      "drag_term": -0.00047375,
      "inclination": 87.9053,
      "right_ascension": 355.6937,
      "eccentricity": 0.0001914,
      "argument_of_perigee": 97.5428,
      "mean_anomaly": 262.592,
      "mean_motion": 13.14503635,
      "revolution_number": 20468,
      "line1": "1 48234U 21031AA  25201.46402692 -.00000163  00000+0 -47375-3 0  9991",
      "line2": "2 48234  87.9053 355.6937 0001914  97.5428 262.5920 13.14503635204680",
      "last_updated": "2025-07-21T05:06:13.714130+00:00",
      "constellation": "oneweb"
    }
  ]
}